STARLINK-30929          
1 58386U 23178N   26202.99186953  .00001866  00000+0  66318-4 0  9991
2 58386  53.1602  94.9255 0001237  94.9405 265.1739 15.34408136150461
STARLINK-30898          
1 58387U 23178P   26202.91833734  .00002226  00000+0  77004-4 0  9995
2 58387  53.1591  95.2590 0000995  92.1873 267.9243 15.34392454150470
STARLINK-30913          
1 58388U 23178Q   26202.44766921 -.00000024  00000+0  10437-4 0  9999
2 58388  53.1603  97.4244 0001218  77.4135 282.7004 15.34396947150405
STARLINK-30938          
1 58389U 23178R   26202.83475137  .00000523  00000+0  26596-4 0  9995
2 58389  53.1592  96.9897 0001034  97.4819 262.6301 15.34398194150445
STARLINK-30868          
1 58390U 23178S   26202.70190589  .00000517  00000+0  26452-4 0  9992
2 58390  53.1592  96.1674 0001253  90.0931 270.0216 15.34394230150444
STARLINK-30916          
1 58391U 23178T   26202.13039108  .00001478  00000+0  54868-4 0  9998
2 58391  53.1607  98.8940 0001442 105.8362 254.2800 15.34402527150352
STARLINK-30939          
1 58393U 23178V   26203.01706284  .00001372  00000+0  51746-4 0  9999
2 58393  53.1590  94.5763 0001288  87.0192 273.0958 15.34401340150367
STARLINK-30887          
1 58394U 23178W   26202.01063780  .00007747  00000+0  24020-3 0  9992
2 58394  53.1589  99.4984 0001144 100.6583 259.4548 15.34394925150310
STARLINK-30934          
1 58395U 23178X   26202.11989326  .00001402  00000+0  52628-4 0  9995
2 58395  53.1603  99.0065 0001419  94.7666 265.3499 15.34401847150283
STARLINK-30964          
1 58402U 23180A   26202.84524881  .00002714  00000+0  10811-3 0  9992
2 58402  43.0017  14.8861 0001432 269.5913  90.4775 15.27585854148149
STARLINK-30844          
1 58403U 23180B   26202.80427508  .00000455  00000+0  26054-4 0  9994
2 58403  43.0058  15.4418 0001996 257.4998 102.5630 15.27578726148015
STARLINK-30876          
1 58404U 23180C   26202.86580572  .00001125  00000+0  50409-4 0  9998
2 58404  43.0075  15.0449 0002533 272.5111  87.5451 15.27583054148145
STARLINK-30952          
1 58405U 23180D   26202.79013704  .00002055  00000+0  84173-4 0  9997
2 58405  43.0034  15.3359 0001149 271.5485  88.5235 15.27587724148025
STARLINK-30925          
1 58406U 23180E   26202.79271241  .00002450  00000+0  98485-4 0  9990
2 58406  43.0042  15.3531 0001242 273.4531  86.6179 15.27590143148018
STARLINK-30954          
1 58407U 23180F   26202.51189283  .00000555  00000+0  29698-4 0  9999
2 58407  43.0004  16.6825 0001243 278.0773  81.9937 15.27576830148092
STARLINK-30906          
1 58408U 23180G   26202.81918353  .00000337  00000+0  21789-4 0  9992
2 58408  43.0052  18.7937 0001550 270.8467  89.2207 15.27574506147980
STARLINK-30940          
1 58409U 23180H   26202.48394940  .00000827  00000+0  39566-4 0  9992
2 58409  43.0017 231.8696 0001640 281.2686  78.7981 15.27579732149790
STARLINK-30933          
1 58410U 23180J   26201.44918623  .00000014  00000+0  10048-4 0  9991
2 58410  43.0008 236.9919 0001347 271.7428  88.3269 15.27575962149649
STARLINK-30919          
1 58411U 23180K   26202.81825214  .00000968  00000+0  44693-4 0  9998
2 58411  43.0012  14.6052 0001452 232.9496 127.1223 15.27571808148045
STARLINK-30924          
1 58412U 23180L   26202.42380378  .00131749  00000+0  17447-2 0  9990
2 58412  42.9912 213.1557 0018066  94.7638 265.5288 15.56933400150009
STARLINK-30931          
1 58413U 23180M   26202.77346738  .00001135  00000+0  50771-4 0  9995
2 58413  43.0053   4.0603 0001555 273.3863  86.6811 15.27586930148266
STARLINK-30922          
1 58414U 23180N   26202.53502436  .00000263  00000+0  19092-4 0  9991
2 58414  43.0047  16.8457 0001259 278.4433  81.6276 15.27577369148095
STARLINK-30949          
1 58415U 23180P   26202.78630094 -.00000462  00000+0 -72590-5 0  9997
2 58415  43.0018  15.2749 0000867 272.4899  87.5854 15.27568405148138
STARLINK-30967          
1 58416U 23180Q   26202.84780184  .00001569  00000+0  66491-4 0  9990
2 58416  42.9978  14.8905 0000457 184.3248 175.7599 15.27592305148148
STARLINK-30955          
1 58417U 23180R   26202.81568816  .00001882  00000+0  77898-4 0  9995
2 58417  43.0024  14.6507 0001273 265.2478  94.8228 15.27587354148148
STARLINK-30895          
1 58418U 23180S   26202.84137611  .00002215  00000+0  89959-4 0  9996
2 58418  43.0026  14.8579 0001691 257.2023 102.8639 15.27597156148038
STARLINK-30917          
1 58419U 23180T   26202.44991534 -.00000498  00000+0 -85683-5 0  9999
2 58419  43.0033 268.3537 0001480 253.9388 106.1300 15.27575610149359
STARLINK-30899          
1 58420U 23180U   26202.56185187  .00001045  00000+0  47476-4 0  9997
2 58420  43.0040  16.2005 0001739 265.6018  94.4635 15.27585232147984
STARLINK-30902          
1 58421U 23180V   26202.77857116  .00000594  00000+0  31128-4 0  9994
2 58421  43.0045  15.2407 0001705 273.3801  86.6856 15.27583288148027
STARLINK-30912          
1 58422U 23180W   26202.50900046  .00000680  00000+0  34221-4 0  9990
2 58422  43.0005 234.5577 0001395 270.5363  89.5329 15.27576708149763
