OBJECT_NAME,OBJECT_ID,EPOCH,MEAN_MOTION,ECCENTRICITY,INCLINATION,RA_OF_ASC_NODE,ARG_OF_PERICENTER,MEAN_ANOMALY,EPHEMERIS_TYPE,CLASSIFICATION_TYPE,NORAD_CAT_ID,ELEMENT_SET_NO,REV_AT_EPOCH,BSTAR,MEAN_MOTION_DOT,MEAN_MOTION_DDOT
STARLINK-30929,2023-178N,2026-07-21T23:48:17.527392,15.34408136,.00012379,53.1602,94.9255,94.9405,265.1739,0,U,58386,999,15046,.66317955E-4,.1866E-4,0
STARLINK-30898,2023-178P,2026-07-21T22:02:24.346176,15.34392454,.00009958,53.1591,95.2590,92.1873,267.9243,0,U,58387,999,15047,.77004107E-4,.2226E-4,0
STARLINK-30913,2023-178Q,2026-07-21T10:44:38.619744,15.34396947,.00012181,53.1603,97.4244,77.4135,282.7004,0,U,58388,999,15040,.10436739E-4,-.24E-6,0
STARLINK-30938,2023-178R,2026-07-21T20:02:02.518368,15.34398194,.00010349,53.1592,96.9897,97.4819,262.6301,0,U,58389,999,15044,.26596119E-4,.523E-5,0
STARLINK-30868,2023-178S,2026-07-21T16:50:44.668896,15.34394230,.00012536,53.1592,96.1674,90.0931,270.0216,0,U,58390,999,15044,.26451674E-4,.517E-5,0
STARLINK-30916,2023-178T,2026-07-21T03:07:45.789312,15.34402527,.00014421,53.1607,98.8940,105.8362,254.2800,0,U,58391,999,15035,.54867804E-4,.1478E-4,0
STARLINK-30939,2023-178V,2026-07-22T00:24:34.229376,15.34401340,.00012885,53.1590,94.5763,87.0192,273.0958,0,U,58393,999,15036,.51746379E-4,.1372E-4,0
STARLINK-30887,2023-178W,2026-07-21T00:15:19.105920,15.34394925,.00011445,53.1589,99.4984,100.6583,259.4548,0,U,58394,999,15031,.24020139E-3,.7747E-4,0
STARLINK-30934,2023-178X,2026-07-21T02:52:38.777664,15.34401847,.00014196,53.1603,99.0065,94.7666,265.3499,0,U,58395,999,15028,.52628477E-4,.1402E-4,0
STARLINK-30964,2023-180A,2026-07-21T20:17:09.497184,15.27585854,.00014325,43.0017,14.8861,269.5913,90.4775,0,U,58402,999,14814,.10810702E-3,.2714E-4,0
STARLINK-30844,2023-180B,2026-07-21T19:18:09.366912,15.27578726,.00019969,43.0058,15.4418,257.4998,102.5630,0,U,58403,999,14801,.26053686E-4,.455E-5,0
STARLINK-30876,2023-180C,2026-07-21T20:46:45.614208,15.27583054,.00025339,43.0075,15.0449,272.5111,87.5451,0,U,58404,999,14814,.50408634E-4,.1125E-4,0
STARLINK-30952,2023-180D,2026-07-21T18:57:47.840256,15.27587724,.00011495,43.0034,15.3359,271.5485,88.5235,0,U,58405,999,14802,.84173403E-4,.2055E-4,0
STARLINK-30925,2023-180E,2026-07-21T19:01:30.352224,15.27590143,.00012424,43.0042,15.3531,273.4531,86.6179,0,U,58406,999,14801,.98485197E-4,.245E-4,0
STARLINK-30954,2023-180F,2026-07-21T12:17:07.540512,15.27576830,.00012435,43.0004,16.6825,278.0773,81.9937,0,U,58407,999,14809,.29698283E-4,.555E-5,0
STARLINK-30906,2023-180G,2026-07-21T19:39:37.456992,15.27574506,.00015502,43.0052,18.7937,270.8467,89.2207,0,U,58408,999,14798,.21788714E-4,.337E-5,0
STARLINK-30940,2023-180H,2026-07-21T11:36:53.228160,15.27579732,.00016407,43.0017,231.8696,281.2686,78.7981,0,U,58409,999,14979,.39566136E-4,.827E-5,0
STARLINK-30933,2023-180J,2026-07-20T10:46:49.690272,15.27575962,.00013474,43.0008,236.9919,271.7428,88.3269,0,U,58410,999,14964,.10048097E-4,.14E-6,0
STARLINK-30919,2023-180K,2026-07-21T19:38:16.984896,15.27571808,.00014524,43.0012,14.6052,232.9496,127.1223,0,U,58411,999,14804,.44693142E-4,.968E-5,0
STARLINK-30924,2023-180L,2026-07-21T10:10:16.646592,15.56933400,.00180667,42.9912,213.1557,94.7638,265.5288,0,U,58412,999,15000,.17447301E-2,.131749E-2,0
STARLINK-30931,2023-180M,2026-07-21T18:33:47.581632,15.27586930,.00015552,43.0053,4.0603,273.3863,86.6811,0,U,58413,999,14826,.50771214E-4,.1135E-4,0
STARLINK-30922,2023-180N,2026-07-21T12:50:26.104704,15.27577369,.00012592,43.0047,16.8457,278.4433,81.6276,0,U,58414,999,14809,.19091607E-4,.263E-5,0
STARLINK-30949,2023-180P,2026-07-21T18:52:16.401216,15.27568405,.00008671,43.0018,15.2749,272.4899,87.5854,0,U,58415,999,14813,-.7258999E-5,-.462E-5,0
STARLINK-30967,2023-180Q,2026-07-21T20:20:50.078976,15.27592305,.00004572,42.9978,14.8905,184.3248,175.7599,0,U,58416,999,14814,.66491454E-4,.1569E-4,0
STARLINK-30955,2023-180R,2026-07-21T19:34:35.457024,15.27587354,.00012732,43.0024,14.6507,265.2478,94.8228,0,U,58417,999,14814,.77898036E-4,.1882E-4,0
STARLINK-30895,2023-180S,2026-07-21T20:11:34.895904,15.27597156,.00016912,43.0026,14.8579,257.2023,102.8639,0,U,58418,999,14803,.8995896E-4,.2215E-4,0
STARLINK-30917,2023-180T,2026-07-21T10:47:52.685376,15.27575610,.00014802,43.0033,268.3537,253.9388,106.1300,0,U,58419,999,14935,-.8568282E-5,-.498E-5,0
STARLINK-30899,2023-180U,2026-07-21T13:29:04.001568,15.27585232,.00017393,43.0040,16.2005,265.6018,94.4635,0,U,58420,999,14798,.47475816E-4,.1045E-4,0
STARLINK-30902,2023-180V,2026-07-21T18:41:08.548224,15.27583288,.00017052,43.0045,15.2407,273.3801,86.6856,0,U,58421,999,14802,.31128302E-4,.594E-5,0
STARLINK-30912,2023-180W,2026-07-21T12:12:57.639744,15.27576708,.00013957,43.0005,234.5577,270.5363,89.5329,0,U,58422,999,14976,.34220627E-4,.68E-5,0
